{
  "languages": [
    {
      "iso_639_1": "en",
      "iso_639_2": "eng",
      "name": "English",
      "native_name": "English",
      "locale_code": "en-US",
      "translations": {
        "en": "English",
        "fr": "Anglais"
      }
    },
    {
      "iso_639_1": "fr",
      "iso_639_2": "fra",
      "name": "French",
      "native_name": "Français",
      "locale_code": "fr-FR",
      "translations": {
        "en": "French",
        "fr": "Français"
      }
    },
    {
      "iso_639_1": "es",
      "iso_639_2": "spa",
      "name": "Spanish",
      "native_name": "Español",
      "locale_code": "es-ES",
      "translations": {
        "en": "Spanish",
        "fr": "Espagnol"
      }
    },
    {
      "iso_639_1": "de",
      "iso_639_2": "deu",
      "name": "German",
      "native_name": "Deutsch",
      "locale_code": "de-DE",
      "translations": {
        "en": "German",
        "fr": "Allemand"
      }
    },
    {
      "iso_639_1": "it",
      "iso_639_2": "ita",
      "name": "Italian",
      "native_name": "Italiano",
      "locale_code": "it-IT",
      "translations": {
        "en": "Italian",
        "fr": "Italien"
      }
    },
    {
      "iso_639_1": "pt",
      "iso_639_2": "por",
      "name": "Portuguese",
      "native_name": "Português",
      "locale_code": "pt-PT",
      "translations": {
        "en": "Portuguese",
        "fr": "Portugais"
      }
    },
    {
      "iso_639_1": "ru",
      "iso_639_2": "rus",
      "name": "Russian",
      "native_name": "Русский",
      "locale_code": "ru-RU",
      "translations": {
        "en": "Russian",
        "fr": "Russe"
      }
    },
    {
      "iso_639_1": "zh",
      "iso_639_2": "zho",
      "name": "Chinese",
      "native_name": "中文",
      "locale_code": "zh-CN",
      "translations": {
        "en": "Chinese",
        "fr": "Chinois"
      }
    },
    {
      "iso_639_1": "ja",
      "iso_639_2": "jpn",
      "name": "Japanese",
      "native_name": "日本語",
      "locale_code": "ja-JP",
      "translations": {
        "en": "Japanese",
        "fr": "Japonais"
      }
    },
    {
      "iso_639_1": "ko",
      "iso_639_2": "kor",
      "name": "Korean",
      "native_name": "한국어",
      "locale_code": "ko-KR",
      "translations": {
        "en": "Korean",
        "fr": "Coréen"
      }
    }
  ]
}
